FENGYUN 1C DEB          
1 32160U 99025CTE 17345.20873849  .00000166  00000-0  78238-4 0  9993
2 32160  98.6910  76.4296 0091108 297.2869  61.9056 14.30009297544839
